{"type":"FeatureCollection","name":"lokasi_evakuasi","features":[{"type":"Feature","properties":{"id_evakuas":"TEV_001","nama_titik":"TEV_001","sumber_kan":"FASILITAS","nama_sumbe":"SD Negeri 2 Dekso","jenis_sumb":"34","longitude":110.221958,"latitude":-7.719091,"skor_total":82.26,"kelas_reko":"Baik","score_aman":50,"score_slop":100,"score_laha":100,"score_akse":100,"score_laya":72.58477841466454,"score_sung":100,"jml_bangun":5063,"selected_g":5063,"selected_p":99.3,"selected_c":0.0982,"jarak_jala":40.39143382758565,"jarak_sung":391.04738602741,"jarak_bang":3.7},"geometry":{"type":"Point","coordinates":[110.22195840035998,-7.719090599551458]}},{"type":"Feature","properties":{"id_evakuas":"TEV_002","nama_titik":"TEV_002","sumber_kan":"FASILITAS","nama_sumbe":"SMA N 1 SAMIGALUH","jenis_sumb":"40","longitude":110.161391,"latitude":-7.661691,"skor_total":81.92,"kelas_reko":"Baik","score_aman":50,"score_slop":100,"score_laha":100,"score_akse":100,"score_laya":74.17773805750221,"score_sung":90,"jml_bangun":2656,"selected_g":2656,"selected_p":97.62,"selected_c":0.1498,"jarak_jala":22.533103214669797,"jarak_sung":154.93192257978347,"jarak_bang":13.6},"geometry":{"type":"Point","coordinates":[110.16139079984565,-7.661690500316294]}},{"type":"Feature","properties":{"id_evakuas":"TEV_003","nama_titik":"TEV_003","sumber_kan":"TUPLAH","nama_sumbe":"kandidat_dari_tuplah","jenis_sumb":"Perkebunan/Kebun","longitude":110.199514,"latitude":-7.728565,"skor_total":74.61,"kelas_reko":"Baik","score_aman":55,"score_slop":100,"score_laha":65,"score_akse":85,"score_laya":88.57271220181009,"score_sung":70,"jml_bangun":2769,"selected_g":2769,"selected_p":93.65,"selected_c":0.2035,"jarak_jala":125.83405717080161,"jarak_sung":78.55424251785689,"jarak_bang":109.5},"geometry":{"type":"Point","coordinates":[110.19951394006868,-7.728564594479439]}},{"type":"Feature","properties":{"id_evakuas":"TEV_004","nama_titik":"TEV_004","sumber_kan":"TUPLAH","nama_sumbe":"kandidat_dari_tuplah","jenis_sumb":"Perkebunan/Kebun","longitude":110.172318,"latitude":-7.724895,"skor_total":77.16,"kelas_reko":"Baik","score_aman":55,"score_slop":100,"score_laha":65,"score_akse":100,"score_laya":76.57475352835057,"score_sung":100,"jml_bangun":2271,"selected_g":2271,"selected_p":94.29,"selected_c":0.2475,"jarak_jala":42.7943300962521,"jarak_sung":254.71450719252869,"jarak_bang":28.6},"geometry":{"type":"Point","coordinates":[110.17231801098588,-7.724894855324251]}},{"type":"Feature","properties":{"id_evakuas":"TEV_005","nama_titik":"TEV_005","sumber_kan":"TUPLAH","nama_sumbe":"kandidat_dari_tuplah","jenis_sumb":"Permukiman dan Tempat Kegiatan","longitude":110.23221,"latitude":-7.699681,"skor_total":81.6,"kelas_reko":"Baik","score_aman":50,"score_slop":100,"score_laha":100,"score_akse":100,"score_laya":70.97448430933265,"score_sung":90,"jml_bangun":2045,"selected_g":2045,"selected_p":93.12,"selected_c":0.2872,"jarak_jala":39.647160221633435,"jarak_sung":158.5097273395555,"jarak_bang":19},"geometry":{"type":"Point","coordinates":[110.23220994988255,-7.699680978792207]}},{"type":"Feature","properties":{"id_evakuas":"TEV_006","nama_titik":"TEV_006","sumber_kan":"TUPLAH","nama_sumbe":"kandidat_dari_tuplah","jenis_sumb":"Semak Belukar","longitude":110.205002,"latitude":-7.703249,"skor_total":72.45,"kelas_reko":"Baik","score_aman":55,"score_slop":100,"score_laha":65,"score_akse":60,"score_laya":94.53427703295553,"score_sung":90,"jml_bangun":2114,"selected_g":2114,"selected_p":93.11,"selected_c":0.3282,"jarak_jala":189.8117557116217,"jarak_sung":225.41213319392477,"jarak_bang":245.2},"geometry":{"type":"Point","coordinates":[110.20500185913781,-7.703249317766169]}},{"type":"Feature","properties":{"id_evakuas":"TEV_007","nama_titik":"TEV_007","sumber_kan":"TUPLAH","nama_sumbe":"kandidat_dari_tuplah","jenis_sumb":"Permukiman dan Tempat Kegiatan","longitude":110.16873,"latitude":-7.704989,"skor_total":82.85,"kelas_reko":"Baik","score_aman":55,"score_slop":100,"score_laha":100,"score_akse":85,"score_laya":86.00117186501132,"score_sung":100,"jml_bangun":2067,"selected_g":2013,"selected_p":95.71,"selected_c":0.3673,"jarak_jala":67.6533980165992,"jarak_sung":305.46309267489124,"jarak_bang":124.4},"geometry":{"type":"Point","coordinates":[110.16872984907576,-7.704989434232016]}},{"type":"Feature","properties":{"id_evakuas":"TEV_008","nama_titik":"TEV_008","sumber_kan":"TUPLAH","nama_sumbe":"kandidat_dari_tuplah","jenis_sumb":"Perkebunan/Kebun","longitude":110.177846,"latitude":-7.679682,"skor_total":72.88,"kelas_reko":"Baik","score_aman":50,"score_slop":100,"score_laha":65,"score_akse":100,"score_laya":63.81007105163757,"score_sung":70,"jml_bangun":1742,"selected_g":1742,"selected_p":93.22,"selected_c":0.4011,"jarak_jala":44.95684862934854,"jarak_sung":54.042687049581986,"jarak_bang":26},"geometry":{"type":"Point","coordinates":[110.17784574314629,-7.679681636912114]}},{"type":"Feature","properties":{"id_evakuas":"TEV_009","nama_titik":"TEV_009","sumber_kan":"FASILITAS","nama_sumbe":"MTS Negeri Sidoharjo","jenis_sumb":"19","longitude":110.200785,"latitude":-7.676236,"skor_total":75.63,"kelas_reko":"Baik","score_aman":55,"score_slop":100,"score_laha":70,"score_akse":100,"score_laya":56.348705142981856,"score_sung":90,"jml_bangun":1454,"selected_g":1454,"selected_p":97.72,"selected_c":0.4293,"jarak_jala":39.20378585667454,"jarak_sung":126.23979441082966,"jarak_bang":28.6},"geometry":{"type":"Point","coordinates":[110.20078539972654,-7.676236100015955]}},{"type":"Feature","properties":{"id_evakuas":"TEV_010","nama_titik":"TEV_010","sumber_kan":"TUPLAH","nama_sumbe":"kandidat_dari_tuplah","jenis_sumb":"Perkebunan/Kebun","longitude":110.188602,"latitude":-7.744825,"skor_total":73.75,"kelas_reko":"Baik","score_aman":55,"score_slop":100,"score_laha":65,"score_akse":100,"score_laya":57.511290652118795,"score_sung":70,"jml_bangun":1557,"selected_g":1452,"selected_p":93.44,"selected_c":0.4575,"jarak_jala":16.57584441197556,"jarak_sung":79.19782818700503,"jarak_bang":18.3},"geometry":{"type":"Point","coordinates":[110.18860160925645,-7.744824620067898]}},{"type":"Feature","properties":{"id_evakuas":"TEV_011","nama_titik":"TEV_011","sumber_kan":"FASILITAS","nama_sumbe":"SMP Negeri 2 Kalibawang","jenis_sumb":"42","longitude":110.256609,"latitude":-7.688402,"skor_total":78.5,"kelas_reko":"Baik","score_aman":50,"score_slop":100,"score_laha":100,"score_akse":100,"score_laya":49.957180577703255,"score_sung":70,"jml_bangun":1317,"selected_g":1317,"selected_p":95.95,"selected_c":0.483,"jarak_jala":30.345746602207228,"jarak_sung":52.19898179846626,"jarak_bang":12.1},"geometry":{"type":"Point","coordinates":[110.2566089001807,-7.688401900227456]}},{"type":"Feature","properties":{"id_evakuas":"TEV_012","nama_titik":"TEV_012","sumber_kan":"TUPLAH","nama_sumbe":"kandidat_dari_tuplah","jenis_sumb":"Permukiman dan Tempat Kegiatan","longitude":110.188698,"latitude":-7.694174,"skor_total":81.3,"kelas_reko":"Baik","score_aman":55,"score_slop":100,"score_laha":100,"score_akse":100,"score_laya":62.96352255776194,"score_sung":70,"jml_bangun":1746,"selected_g":1390,"selected_p":95.33,"selected_c":0.51,"jarak_jala":43.058800483573776,"jarak_sung":81.0650749766206,"jarak_bang":20.1},"geometry":{"type":"Point","coordinates":[110.18869820128926,-7.694173954323481]}},{"type":"Feature","properties":{"id_evakuas":"TEV_013","nama_titik":"TEV_013","sumber_kan":"FASILITAS","nama_sumbe":"Badan Usaha Binanun Babar Anyar Desa Kebonharjo. Usaha Simpan Pinjam","jenis_sumb":"3","longitude":110.148244,"latitude":-7.697642,"skor_total":79.3,"kelas_reko":"Baik","score_aman":50,"score_slop":100,"score_laha":100,"score_akse":100,"score_laya":47.98194507247302,"score_sung":90,"jml_bangun":1267,"selected_g":1267,"selected_p":98.1,"selected_c":0.5346,"jarak_jala":9.699950735485068,"jarak_sung":124.09853517891548,"jarak_bang":8.3},"geometry":{"type":"Point","coordinates":[110.14824439955952,-7.697641800228842]}},{"type":"Feature","properties":{"id_evakuas":"TEV_014","nama_titik":"TEV_014","sumber_kan":"TUPLAH","nama_sumbe":"kandidat_dari_tuplah","jenis_sumb":"Permukiman dan Tempat Kegiatan","longitude":110.154179,"latitude":-7.726668,"skor_total":79.56,"kelas_reko":"Baik","score_aman":55,"score_slop":100,"score_laha":100,"score_akse":85,"score_laya":58.07092967621955,"score_sung":90,"jml_bangun":1456,"selected_g":1249,"selected_p":92.2,"selected_c":0.5588,"jarak_jala":108.03294874751437,"jarak_sung":226.33929471811186,"jarak_bang":39},"geometry":{"type":"Point","coordinates":[110.15417935586632,-7.726668278826998]}},{"type":"Feature","properties":{"id_evakuas":"TEV_015","nama_titik":"TEV_015","sumber_kan":"TUPLAH","nama_sumbe":"kandidat_dari_tuplah","jenis_sumb":"Tegalan/Ladang","longitude":110.225028,"latitude":-7.659871,"skor_total":73.69,"kelas_reko":"Baik","score_aman":50,"score_slop":100,"score_laha":65,"score_akse":100,"score_laya":61.85299484262738,"score_sung":90,"jml_bangun":1268,"selected_g":1268,"selected_p":93.42,"selected_c":0.5834,"jarak_jala":19.826795129131423,"jarak_sung":120.13984322100666,"jarak_bang":94.8},"geometry":{"type":"Point","coordinates":[110.22502835681115,-7.659870548298902]}},{"type":"Feature","properties":{"id_evakuas":"TEV_016","nama_titik":"TEV_016","sumber_kan":"TUPLAH","nama_sumbe":"kandidat_dari_tuplah","jenis_sumb":"Permukiman dan Tempat Kegiatan","longitude":110.139777,"latitude":-7.67418,"skor_total":78.98,"kelas_reko":"Baik","score_aman":50,"score_slop":100,"score_laha":100,"score_akse":100,"score_laya":44.841329515791664,"score_sung":90,"jml_bangun":1109,"selected_g":1109,"selected_p":94.31,"selected_c":0.6049,"jarak_jala":41.7471172823308,"jarak_sung":229.1275612813164,"jarak_bang":15.7},"geometry":{"type":"Point","coordinates":[110.13977712037243,-7.674180300988483]}},{"type":"Feature","properties":{"id_evakuas":"TEV_017","nama_titik":"TEV_017","sumber_kan":"TUPLAH","nama_sumbe":"kandidat_dari_tuplah","jenis_sumb":"Semak Belukar","longitude":110.183327,"latitude":-7.657985,"skor_total":75.15,"kelas_reko":"Baik","score_aman":55,"score_slop":100,"score_laha":65,"score_akse":100,"score_laya":61.50977921090144,"score_sung":90,"jml_bangun":1086,"selected_g":1086,"selected_p":93.4,"selected_c":0.626,"jarak_jala":7.369049879913236,"jarak_sung":231.05503641347548,"jarak_bang":163.4},"geometry":{"type":"Point","coordinates":[110.18332709981895,-7.657984559182184]}},{"type":"Feature","properties":{"id_evakuas":"TEV_018","nama_titik":"TEV_018","sumber_kan":"TUPLAH","nama_sumbe":"kandidat_dari_tuplah","jenis_sumb":"Permukiman dan Tempat Kegiatan","longitude":110.210399,"latitude":-7.726776,"skor_total":82.36,"kelas_reko":"Baik","score_aman":50,"score_slop":100,"score_laha":100,"score_akse":100,"score_laya":78.62344660202815,"score_sung":90,"jml_bangun":3075,"selected_g":1050,"selected_p":92.96,"selected_c":0.6464,"jarak_jala":18.688582904022688,"jarak_sung":175.2104090124128,"jarak_bang":41.4},"geometry":{"type":"Point","coordinates":[110.21039854267347,-7.726775888371156]}},{"type":"Feature","properties":{"id_evakuas":"TEV_019","nama_titik":"TEV_019","sumber_kan":"TUPLAH","nama_sumbe":"kandidat_dari_tuplah","jenis_sumb":"Permukiman dan Tempat Kegiatan","longitude":110.18675,"latitude":-7.76472,"skor_total":79.09,"kelas_reko":"Baik","score_aman":50,"score_slop":100,"score_laha":100,"score_akse":100,"score_laya":45.91984790211729,"score_sung":90,"jml_bangun":1081,"selected_g":1062,"selected_p":92.91,"selected_c":0.667,"jarak_jala":39.92542278745772,"jarak_sung":128.00710588732218,"jarak_bang":27.2},"geometry":{"type":"Point","coordinates":[110.1867497965277,-7.764719597412118]}},{"type":"Feature","properties":{"id_evakuas":"TEV_020","nama_titik":"TEV_020","sumber_kan":"TUPLAH","nama_sumbe":"kandidat_dari_tuplah","jenis_sumb":"Perkebunan/Kebun","longitude":110.221349,"latitude":-7.688808,"skor_total":71.47,"kelas_reko":"Baik","score_aman":50,"score_slop":100,"score_laha":65,"score_akse":85,"score_laya":72.154443153873,"score_sung":70,"jml_bangun":1696,"selected_g":1091,"selected_p":92.87,"selected_c":0.6881,"jarak_jala":79.6928128048855,"jarak_sung":50.40668424071168,"jarak_bang":86},"geometry":{"type":"Point","coordinates":[110.22134918831027,-7.688807539177973]}},{"type":"Feature","properties":{"id_evakuas":"TEV_021","nama_titik":"TEV_021","sumber_kan":"TUPLAH","nama_sumbe":"kandidat_dari_tuplah","jenis_sumb":"Perkebunan/Kebun","longitude":110.186847,"latitude":-7.714069,"skor_total":74.68,"kelas_reko":"Baik","score_aman":50,"score_slop":100,"score_laha":65,"score_akse":100,"score_laya":66.83243559414161,"score_sung":100,"jml_bangun":1530,"selected_g":1059,"selected_p":93.67,"selected_c":0.7087,"jarak_jala":10.685027408936543,"jarak_sung":294.4926899235065,"jarak_bang":81.2},"geometry":{"type":"Point","coordinates":[110.18684686151408,-7.714069002098782]}},{"type":"Feature","properties":{"id_evakuas":"TEV_022","nama_titik":"TEV_022","sumber_kan":"TUPLAH","nama_sumbe":"kandidat_dari_tuplah","jenis_sumb":"Permukiman dan Tempat Kegiatan","longitude":110.25405,"latitude":-7.654495,"skor_total":76.47,"kelas_reko":"Baik","score_aman":50,"score_slop":100,"score_laha":100,"score_akse":85,"score_laya":42.21539913529533,"score_sung":90,"jml_bangun":982,"selected_g":982,"selected_p":93.83,"selected_c":0.7277,"jarak_jala":55.42781763273215,"jarak_sung":178.64433425961465,"jarak_bang":21},"geometry":{"type":"Point","coordinates":[110.25405001001202,-7.654494799343566]}},{"type":"Feature","properties":{"id_evakuas":"TEV_023","nama_titik":"TEV_023","sumber_kan":"TUPLAH","nama_sumbe":"kandidat_dari_tuplah","jenis_sumb":"Tegalan/Ladang","longitude":110.201456,"latitude":-7.659828,"skor_total":73.34,"kelas_reko":"Baik","score_aman":50,"score_slop":100,"score_laha":65,"score_akse":100,"score_laya":58.39070149540739,"score_sung":90,"jml_bangun":1156,"selected_g":964,"selected_p":93.19,"selected_c":0.7464,"jarak_jala":33.96910492457046,"jarak_sung":225.22878170336742,"jarak_bang":92.3},"geometry":{"type":"Point","coordinates":[110.20145608095002,-7.659827503203799]}},{"type":"Feature","properties":{"id_evakuas":"TEV_024","nama_titik":"TEV_024","sumber_kan":"FASILITAS","nama_sumbe":"None","jenis_sumb":"1","longitude":110.121025,"latitude":-7.769825,"skor_total":78.02,"kelas_reko":"Baik","score_aman":50,"score_slop":100,"score_laha":100,"score_akse":100,"score_laya":35.2170621037175,"score_sung":90,"jml_bangun":798,"selected_g":798,"selected_p":93.42,"selected_c":0.7619,"jarak_jala":29.654652525372505,"jarak_sung":157.2205262040153,"jarak_bang":8.7},"geometry":{"type":"Point","coordinates":[110.12102489977939,-7.7698251998730345]}},{"type":"Feature","properties":{"id_evakuas":"TEV_025","nama_titik":"TEV_025","sumber_kan":"TUPLAH","nama_sumbe":"kandidat_dari_tuplah","jenis_sumb":"Perkebunan/Kebun","longitude":110.165028,"latitude":-7.74297,"skor_total":73.35,"kelas_reko":"Baik","score_aman":55,"score_slop":100,"score_laha":65,"score_akse":100,"score_laya":53.50989744678784,"score_sung":70,"jml_bangun":1099,"selected_g":874,"selected_p":93.34,"selected_c":0.7789,"jarak_jala":8.436100794849397,"jarak_sung":94.65213881842406,"jarak_bang":71.6},"geometry":{"type":"Point","coordinates":[110.16502841050487,-7.742970146205237]}},{"type":"Feature","properties":{"id_evakuas":"TEV_026","nama_titik":"TEV_026","sumber_kan":"FASILITAS","nama_sumbe":"SD Tegalsari","jenis_sumb":"38","longitude":110.132902,"latitude":-7.725621,"skor_total":78.42,"kelas_reko":"Baik","score_aman":50,"score_slop":100,"score_laha":100,"score_akse":100,"score_laya":34.197669179882254,"score_sung":100,"jml_bangun":772,"selected_g":772,"selected_p":95.35,"selected_c":0.7938,"jarak_jala":16.333138594108522,"jarak_sung":300.586316565856,"jarak_bang":6.8},"geometry":{"type":"Point","coordinates":[110.13290189980295,-7.7256207999599305]}},{"type":"Feature","properties":{"id_evakuas":"TEV_027","nama_titik":"TEV_027","sumber_kan":"TUPLAH","nama_sumbe":"kandidat_dari_tuplah","jenis_sumb":"Permukiman dan Tempat Kegiatan","longitude":110.163336,"latitude":-7.681463,"skor_total":74.96,"kelas_reko":"Baik","score_aman":55,"score_slop":100,"score_laha":100,"score_akse":60,"score_laya":49.574102621917234,"score_sung":90,"jml_bangun":1232,"selected_g":774,"selected_p":92.41,"selected_c":0.8089,"jarak_jala":165.10418948098177,"jarak_sung":103.64426239926027,"jarak_bang":24.2},"geometry":{"type":"Point","coordinates":[110.16333567000876,-7.681462584012991]}},{"type":"Feature","properties":{"id_evakuas":"TEV_028","nama_titik":"TEV_028","sumber_kan":"TUPLAH","nama_sumbe":"kandidat_dari_tuplah","jenis_sumb":"Permukiman dan Tempat Kegiatan","longitude":110.257648,"latitude":-7.670782,"skor_total":76.6,"kelas_reko":"Baik","score_aman":50,"score_slop":100,"score_laha":100,"score_akse":85,"score_laya":43.4790156073739,"score_sung":90,"jml_bangun":1051,"selected_g":768,"selected_p":93.61,"selected_c":0.8238,"jarak_jala":55.0798858006231,"jarak_sung":138.77394158750607,"jarak_bang":17.1},"geometry":{"type":"Point","coordinates":[110.25764831005479,-7.67078194038931]}},{"type":"Feature","properties":{"id_evakuas":"TEV_029","nama_titik":"TEV_029","sumber_kan":"TUPLAH","nama_sumbe":"kandidat_dari_tuplah","jenis_sumb":"Permukiman dan Tempat Kegiatan","longitude":110.141445,"latitude":-7.746541,"skor_total":78.23,"kelas_reko":"Baik","score_aman":50,"score_slop":100,"score_laha":100,"score_akse":100,"score_laya":32.32827593325234,"score_sung":100,"jml_bangun":723,"selected_g":723,"selected_p":93.41,"selected_c":0.8378,"jarak_jala":13.562356647646833,"jarak_sung":501.3751194987893,"jarak_bang":3.5},"geometry":{"type":"Point","coordinates":[110.14144457072707,-7.746541175858845]}},{"type":"Feature","properties":{"id_evakuas":"TEV_030","nama_titik":"TEV_030","sumber_kan":"TUPLAH","nama_sumbe":"kandidat_dari_tuplah","jenis_sumb":"Perkebunan/Kebun","longitude":110.237692,"latitude":-7.676174,"skor_total":73.9,"kelas_reko":"Baik","score_aman":55,"score_slop":100,"score_laha":65,"score_akse":100,"score_laya":58.99856418195046,"score_sung":70,"jml_bangun":723,"selected_g":692,"selected_p":93.47,"selected_c":0.8512,"jarak_jala":15.733899053948763,"jarak_sung":61.60112986694407,"jarak_bang":287.1},"geometry":{"type":"Point","coordinates":[110.23769220313189,-7.67617399515488]}},{"type":"Feature","properties":{"id_evakuas":"TEV_031","nama_titik":"TEV_031","sumber_kan":"FASILITAS","nama_sumbe":"Masjid Baiturrahman","jenis_sumb":"15","longitude":110.16863,"latitude":-7.776834,"skor_total":76.38,"kelas_reko":"Baik","score_aman":50,"score_slop":100,"score_laha":100,"score_akse":100,"score_laya":28.81963576310627,"score_sung":70,"jml_bangun":574,"selected_g":574,"selected_p":95.62,"selected_c":0.8623,"jarak_jala":11.248238758069116,"jarak_sung":95.61883237395783,"jarak_bang":7},"geometry":{"type":"Point","coordinates":[110.16863020022366,-7.776833899864533]}},{"type":"Feature","properties":{"id_evakuas":"TEV_032","nama_titik":"TEV_032","sumber_kan":"TUPLAH","nama_sumbe":"kandidat_dari_tuplah","jenis_sumb":"Permukiman dan Tempat Kegiatan","longitude":110.246721,"latitude":-7.697898,"skor_total":79.08,"kelas_reko":"Baik","score_aman":50,"score_slop":100,"score_laha":100,"score_akse":100,"score_laya":45.80294427137137,"score_sung":90,"jml_bangun":1114,"selected_g":588,"selected_p":94.77,"selected_c":0.8738,"jarak_jala":7.223222888915864,"jarak_sung":176.58167745980344,"jarak_bang":20.8},"geometry":{"type":"Point","coordinates":[110.24672060165773,-7.697897738344738]}},{"type":"Feature","properties":{"id_evakuas":"TEV_033","nama_titik":"TEV_033","sumber_kan":"TUPLAH","nama_sumbe":"kandidat_dari_tuplah","jenis_sumb":"Perkebunan/Kebun","longitude":110.145141,"latitude":-7.712179,"skor_total":66.51,"kelas_reko":"Cukup","score_aman":50,"score_slop":100,"score_laha":65,"score_akse":60,"score_laya":50.091256849511495,"score_sung":90,"jml_bangun":993,"selected_g":519,"selected_p":91.63,"selected_c":0.8838,"jarak_jala":240.19999465750658,"jarak_sung":135.83141980584466,"jarak_bang":68.3},"geometry":{"type":"Point","coordinates":[110.14514089951074,-7.712178771815655]}},{"type":"Feature","properties":{"id_evakuas":"TEV_034","nama_titik":"TEV_034","sumber_kan":"FASILITAS","nama_sumbe":"PAWON WIDOSARI","jenis_sumb":"22","longitude":110.147593,"latitude":-7.656743,"skor_total":69.23,"kelas_reko":"Cukup","score_aman":50,"score_slop":100,"score_laha":70,"score_akse":85,"score_laya":39.81702919167133,"score_sung":70,"jml_bangun":970,"selected_g":455,"selected_p":97,"selected_c":0.8927,"jarak_jala":87.76006266556014,"jarak_sung":66.20316350070527,"jarak_bang":8},"geometry":{"type":"Point","coordinates":[110.14759309974185,-7.656742800040143]}},{"type":"Feature","properties":{"id_evakuas":"TEV_035","nama_titik":"TEV_035","sumber_kan":"TUPLAH","nama_sumbe":"kandidat_dari_tuplah","jenis_sumb":"Tegalan/Ladang","longitude":110.159552,"latitude":-7.761049,"skor_total":66.59,"kelas_reko":"Cukup","score_aman":50,"score_slop":100,"score_laha":65,"score_akse":60,"score_laya":50.949047650229375,"score_sung":90,"jml_bangun":537,"selected_g":456,"selected_p":91.65,"selected_c":0.9015,"jarak_jala":284.1241257552833,"jarak_sung":186.39524346074313,"jarak_bang":237.7},"geometry":{"type":"Point","coordinates":[110.15955177750514,-7.761048818439804]}}]}